     2              NAVIGATION DATA                         RINEX VERSION / TYPE
CCRINEXN V1.6.0 UX  CDDIS               25-JUL-16 15:33     PGM / RUN BY / DATE 
IGS BROADCAST EPHEMERIS FILE                                COMMENT             
    0.7451D-08  0.1490D-07 -0.5960D-07 -0.1192D-06          ION ALPHA           
    0.9216D+05  0.1311D+06 -0.6554D+05 -0.5243D+06          ION BETA            
   -0.186264514923D-08-0.710542735760D-14   147456     1907 DELTA-UTC: A0,A1,T,W
    17                                                      LEAP SECONDS        
                                                            END OF HEADER       
29 16  7 24 18  0  0.0 0.654968433082D-03-0.568434188608D-12 0.000000000000D+00
    0.330000000000D+02 0.387812500000D+02 0.461483508355D-08-0.115357469751D+01
    0.208429992199D-05 0.717412331142D-03 0.521354377270D-05 0.515377611923D+04
    0.648000000000D+05 0.670552253723D-07 0.200035731752D+01 0.372529029846D-07
    0.977825740836D+00 0.289062500000D+03 0.446146331443D-01-0.829141679936D-08
    0.413945813933D-09 0.000000000000D+00 0.190700000000D+04 0.000000000000D+00
    0.200000000000D+01 0.000000000000D+00-0.102445483208D-07 0.330000000000D+02
    0.576000000000D+05 0.400000000000D+01 0.000000000000D+00 0.000000000000D+00
30 16  7 24 18  0  0.0 0.141613651067D-03 0.227373675443D-11 0.000000000000D+00
    0.109000000000D+03-0.333125000000D+02 0.480484299814D-08 0.325196805546D+00
   -0.168569386005D-05 0.231550575700D-02 0.641681253910D-05 0.515357840157D+04
    0.648000000000D+05 0.353902578354D-07-0.831354941956D-01 0.130385160446D-07
    0.951788558088D+00 0.250437500000D+03 0.310354736965D+01-0.833641867387D-08
   -0.272154193457D-09 0.100000000000D+01 0.190700000000D+04 0.000000000000D+00
    0.200000000000D+01 0.000000000000D+00 0.372529029846D-08 0.109000000000D+03
    0.576000000000D+05 0.400000000000D+01 0.000000000000D+00 0.000000000000D+00
32 16  7 24 18  0  0.0-0.578728504479D-04-0.112549969344D-10 0.000000000000D+00
    0.104000000000D+03 0.569687500000D+02 0.459697719684D-08-0.288191424636D+01
    0.305473804474D-05 0.618174090050D-03 0.715255737305D-05 0.515362561607D+04
    0.648000000000D+05-0.186264514923D-07-0.120295967098D+01-0.186264514923D-08
    0.958990904632D+00 0.240125000000D+03-0.230682222655D+01-0.816355433052D-08
    0.345728686702D-09 0.000000000000D+00 0.190700000000D+04 0.000000000000D+00
    0.280000000000D+01 0.000000000000D+00 0.931322574616D-09 0.104000000000D+03
    0.576000000000D+05 0.400000000000D+01 0.000000000000D+00 0.000000000000D+00
 6 16  7 24 19 59 44.0 0.223135109991D-03 0.522959453519D-11 0.000000000000D+00
    0.600000000000D+01-0.715937500000D+02 0.476019828137D-08 0.224552100705D+01
   -0.362098217010D-05 0.313532887958D-03 0.563822686672D-05 0.515373342705D+04
    0.719840000000D+05-0.149011611938D-07 0.298965039627D+01-0.141561031342D-06
    0.965032936238D+00 0.268875000000D+03-0.134181478605D+01-0.830891752834D-08
   -0.330370904131D-09 0.100000000000D+01 0.190700000000D+04 0.000000000000D+00
    0.200000000000D+01 0.000000000000D+00 0.419095158577D-08 0.600000000000D+01
    0.700500000000D+05 0.400000000000D+01 0.000000000000D+00 0.000000000000D+00
 8 16  7 24 19 59 44.0-0.439984723926D-04-0.147792889038D-11 0.000000000000D+00
    0.170000000000D+02 0.383437500000D+02 0.480484299814D-08-0.135718782411D+01
    0.197254121304D-05 0.167372007854D-02 0.610016286373D-05 0.515372120094D+04
    0.719840000000D+05-0.819563865662D-07 0.193710354272D+01-0.726431608200D-07
    0.963666329371D+00 0.267093750000D+03-0.102955645810D+01-0.832213236450D-08
    0.392873507616D-09 0.000000000000D+00 0.190700000000D+04 0.000000000000D+00
    0.200000000000D+01 0.000000000000D+00 0.512227416039D-08 0.170000000000D+02
    0.707700000000D+05 0.400000000000D+01 0.000000000000D+00 0.000000000000D+00
14 16  7 24 19 59 44.0-0.262958928943D-04-0.204636307899D-11 0.000000000000D+00
    0.350000000000D+02 0.571875000000D+02 0.453840332843D-08-0.251359345243D+01
    0.302679836750D-05 0.889845611528D-02 0.668317079544D-05 0.515403628159D+04
    0.719840000000D+05 0.707805156708D-07-0.112049260161D+01-0.109896063805D-06
    0.963278209890D+00 0.252843750000D+03-0.196011468674D+01-0.800390482333D-08
    0.293583657509D-09 0.000000000000D+00 0.190700000000D+04 0.000000000000D+00
    0.200000000000D+01 0.000000000000D+00-0.931322574616D-08 0.350000000000D+02
    0.648000000000D+05 0.400000000000D+01 0.000000000000D+00 0.000000000000D+00
25 16  7 24 19 59 44.0-0.214453786612D-03-0.693489710102D-11 0.000000000000D+00
    0.120000000000D+02 0.212812500000D+02 0.392766360295D-08 0.152430261926D+00
    0.100396573544D-05 0.560693780426D-02 0.117588788271D-04 0.515372983170D+04
    0.719840000000D+05 0.223517417908D-07 0.898904509861D+00 0.949949026108D-07
    0.978461301206D+00 0.167218750000D+03 0.794682491064D+00-0.785318425950D-08
    0.314298806093D-10 0.100000000000D+01 0.190700000000D+04 0.000000000000D+00
    0.200000000000D+01 0.000000000000D+00 0.558793544769D-08 0.120000000000D+02
    0.703200000000D+05 0.400000000000D+01 0.000000000000D+00 0.000000000000D+00
30 16  7 24 19 59 44.0 0.141630414873D-03 0.227373675443D-11 0.000000000000D+00
    0.400000000000D+01-0.263750000000D+02 0.475734101949D-08 0.137286876840D+01
   -0.131875276566D-05 0.231632369105D-02 0.626780092716D-05 0.515358020592D+04
    0.719840000000D+05-0.391155481338D-07-0.831950013143D-01 0.372529029846D-07
    0.951786593389D+00 0.254031250000D+03 0.310378149067D+01-0.829677416537D-08
   -0.316084594764D-09 0.100000000000D+01 0.190700000000D+04 0.000000000000D+00
    0.200000000000D+01 0.000000000000D+00 0.372529029846D-08 0.400000000000D+01
    0.656400000000D+05 0.400000000000D+01 0.000000000000D+00 0.000000000000D+00
 1 16  7 24 20  0  0.0 0.280239619315D-04 0.125055521494D-11 0.000000000000D+00
    0.420000000000D+02-0.692500000000D+02 0.482162941165D-08 0.199657996209D+01
   -0.359117984772D-05 0.572339200880D-02 0.584125518799D-05 0.515363984871D+04
    0.720000000000D+05-0.126659870148D-06 0.299806548727D+01 0.819563865662D-07
    0.965215021263D+00 0.271031250000D+03 0.503585877310D+00-0.830820321287D-08
   -0.237867050975D-09 0.000000000000D+00 0.190700000000D+04 0.000000000000D+00
    0.200000000000D+01 0.000000000000D+00 0.512227416039D-08 0.420000000000D+02
    0.693300000000D+05 0.400000000000D+01 0.000000000000D+00 0.000000000000D+00
 2 16  7 24 20  0  0.0 0.572941731662D-03-0.409272615798D-11 0.000000000000D+00
    0.490000000000D+02-0.817187500000D+02 0.511485591142D-08 0.239910379827D+01
   -0.449828803539D-05 0.158405760303D-01 0.523775815964D-05 0.515360257721D+04
    0.720000000000D+05-0.372529029846D-08 0.295130347178D+01-0.283122062683D-06
    0.943994796189D+00 0.267187500000D+03-0.209957498615D+01-0.824605776712D-08
   -0.311441544219D-09 0.100000000000D+01 0.190700000000D+04 0.000000000000D+00
    0.200000000000D+01 0.000000000000D+00-0.204890966415D-07 0.490000000000D+02
    0.660300000000D+05 0.400000000000D+01 0.000000000000D+00 0.000000000000D+00
 3 16  7 24 20  0  0.0-0.755637884140D-04-0.295585778076D-11 0.000000000000D+00
    0.470000000000D+02-0.231250000000D+02 0.446268588878D-08 0.257214061454D+01
   -0.112317502499D-05 0.164032913744D-03 0.113472342491D-04 0.515366173363D+04
    0.720000000000D+05-0.372529029846D-08-0.224390221066D+01 0.931322574616D-08
    0.959325098027D+00 0.157812500000D+03-0.121508699561D+01-0.794533095493D-08
   -0.864321716755D-10 0.100000000000D+01 0.190700000000D+04 0.000000000000D+00
    0.200000000000D+01 0.000000000000D+00 0.139698386192D-08 0.470000000000D+02
    0.648000000000D+05 0.400000000000D+01 0.000000000000D+00 0.000000000000D+00
 4 16  7 24 20  0  0.0-0.259413383901D-03-0.341060513165D-12 0.000000000000D+00
    0.680000000000D+02 0.132187500000D+02 0.507878298027D-08-0.107871819173D+01
    0.879168510437D-06 0.847239699215D-02 0.114832073450D-04 0.515366775894D+04
    0.720000000000D+05 0.152736902237D-06 0.920793579617D+00 0.108033418655D-06
    0.983226641279D+00 0.167281250000D+03 0.902265158920D+00-0.778068123946D-08
    0.557166065346D-10 0.000000000000D+00 0.190700000000D+04 0.000000000000D+00
    0.280000000000D+01 0.630000000000D+02-0.195577740669D-07 0.680000000000D+02
    0.648000000000D+05 0.400000000000D+01 0.000000000000D+00 0.000000000000D+00
 5 16  7 24 20  0  0.0-0.103058759123D-03 0.272848410532D-11 0.000000000000D+00
    0.400000000000D+01-0.821875000000D+01 0.469519578772D-08-0.139444023718D+01
   -0.482425093651D-06 0.460068660323D-02 0.114981085062D-04 0.515356327629D+04
    0.720000000000D+05 0.745058059692D-07-0.225658923897D+01-0.745058059692D-07
    0.946386714062D+00 0.152000000000D+03 0.465846619742D+00-0.799961874520D-08
   -0.764317567570D-10 0.100000000000D+01 0.190700000000D+04 0.000000000000D+00
    0.200000000000D+01 0.000000000000D+00-0.107102096081D-07 0.400000000000D+01
    0.648000000000D+05 0.000000000000D+00 0.000000000000D+00 0.000000000000D+00
 6 16  7 24 20  0  0.0 0.223134644329D-03 0.522959453519D-11 0.000000000000D+00
    0.101000000000D+03-0.715937500000D+02 0.476019828137D-08 0.224783742080D+01
   -0.362098217010D-05 0.313534634188D-03 0.563822686672D-05 0.515373343086D+04
    0.720000000000D+05-0.149011611938D-07 0.298965026606D+01-0.141561031342D-06
    0.965032937701D+00 0.268875000000D+03-0.134179758360D+01-0.830891752834D-08
   -0.330370904131D-09 0.100000000000D+01 0.190700000000D+04 0.000000000000D+00
    0.200000000000D+01 0.000000000000D+00 0.419095158577D-08 0.101000000000D+03
    0.648000000000D+05 0.400000000000D+01 0.000000000000D+00 0.000000000000D+00
